start=new Date('2023-05-25T00:00:00.000Z').valueOf();
sats=[{"NORAD_CAT_ID":"44939","ARG_OF_PERICENTER":"79.4350","FILE":"3916549","OBJECT_NAME":"STARLINK-1083","REF_FRAME":"TEME","MEAN_MOTION":"15.06352113","RCS_SIZE":"LARGE","OBJECT_ID":"2020-001AB","MEAN_MOTION_DDOT":"0.0000000000000","CENTER_NAME":"EARTH","MEAN_ELEMENT_THEORY":"SGP4","BSTAR":"0.00128950000000","EPOCH":"2023-05-24T14:51:59.309280","TLE_LINE1":"1 44939U 20001AB  23144.61943645  .00018953  00000-0  12895-2 0  9997","REV_AT_EPOCH":"18637","INCLINATION":"53.0518","LAUNCH_DATE":"2020-01-07","MEAN_MOTION_DOT":"0.00018953","PERIOD":"95.595","SITE":"AFETR","COUNTRY_CODE":"US","ELEMENT_SET_NO":"999","PERIAPSIS":"546.330","CLASSIFICATION_TYPE":"U","GP_ID":"232445051","TLE_LINE2":"2 44939  53.0518 225.8887 0001488  79.4350 280.6806 15.06352113186374","ECCENTRICITY":"0.00014880","APOAPSIS":"548.391","SEMIMAJOR_AXIS":"6925.495","MEAN_ANOMALY":"280.6806","OBJECT_TYPE":"PAYLOAD","TIME_SYSTEM":"UTC","DECAY_DATE":null,"EPHEMERIS_TYPE":"0","RA_OF_ASC_NODE":"225.8887"},{"SEMIMAJOR_AXIS":"6925.397","APOAPSIS":"548.018","ELEMENT_SET_NO":"999","CLASSIFICATION_TYPE":"U","PERIAPSIS":"546.507","ECCENTRICITY":"0.00010910","TLE_LINE2":"2 44940  53.0526 225.8398 0001091  79.1989 280.9122 15.06384071186379","GP_ID":"232445296","EPHEMERIS_TYPE":"0","RA_OF_ASC_NODE":"225.8398","OBJECT_TYPE":"PAYLOAD","MEAN_ANOMALY":"280.9122","DECAY_DATE":null,"TIME_SYSTEM":"UTC","RCS_SIZE":"LARGE","CENTER_NAME":"EARTH","OBJECT_ID":"2020-001AC","MEAN_MOTION_DDOT":"0.0000000000000","FILE":"3916549","NORAD_CAT_ID":"44940","ARG_OF_PERICENTER":"79.1989","MEAN_MOTION":"15.06384071","REF_FRAME":"TEME","OBJECT_NAME":"STARLINK-1091","SITE":"AFETR","COUNTRY_CODE":"US","BSTAR":"0.00059729000000","MEAN_ELEMENT_THEORY":"SGP4","TLE_LINE1":"1 44940U 20001AC  23144.63048052  .00008623  00000-0  59729-3 0  9990","EPOCH":"2023-05-24T15:07:53.516928","REV_AT_EPOCH":"18637","PERIOD":"95.593","MEAN_MOTION_DOT":"0.00008623","LAUNCH_DATE":"2020-01-07","INCLINATION":"53.0526"},{"GP_ID":"232446048","TLE_LINE2":"2 44941  53.0530 227.5276 0001208  73.9706 286.1416 15.06404423186321","ECCENTRICITY":"0.00012080","ELEMENT_SET_NO":"999","PERIAPSIS":"546.363","CLASSIFICATION_TYPE":"U","APOAPSIS":"548.037","SEMIMAJOR_AXIS":"6925.335","DECAY_DATE":null,"TIME_SYSTEM":"UTC","MEAN_ANOMALY":"286.1416","OBJECT_TYPE":"PAYLOAD","EPHEMERIS_TYPE":"0","RA_OF_ASC_NODE":"227.5276","ARG_OF_PERICENTER":"73.9706","NORAD_CAT_ID":"44941","FILE":"3916549","OBJECT_NAME":"STARLINK-1094","REF_FRAME":"TEME","MEAN_MOTION":"15.06404423","RCS_SIZE":"LARGE","MEAN_MOTION_DDOT":"0.0000000000000","OBJECT_ID":"2020-001AD","CENTER_NAME":"EARTH","REV_AT_EPOCH":"18632","LAUNCH_DATE":"2020-01-07","MEAN_MOTION_DOT":"0.00002699","INCLINATION":"53.0530","PERIOD":"95.592","MEAN_ELEMENT_THEORY":"SGP4","BSTAR":"0.00020000000000","EPOCH":"2023-05-24T06:06:29.735712","TLE_LINE1":"1 44941U 20001AD  23144.25451083  .00002699  00000-0  20000-3 0  9998","COUNTRY_CODE":"US","SITE":"AFETR"},{"ECCENTRICITY":"0.00033970","TLE_LINE2":"2 44942  53.0475 209.4073 0003397 185.8249 174.2707 15.20768490186615","GP_ID":"232446056","ELEMENT_SET_NO":"999","CLASSIFICATION_TYPE":"U","PERIAPSIS":"501.186","SEMIMAJOR_AXIS":"6881.658","APOAPSIS":"505.861","DECAY_DATE":null,"TIME_SYSTEM":"UTC","MEAN_ANOMALY":"174.2707","OBJECT_TYPE":"PAYLOAD","EPHEMERIS_TYPE":"0","RA_OF_ASC_NODE":"209.4073","FILE":"3916549","ARG_OF_PERICENTER":"185.8249","NORAD_CAT_ID":"44942","MEAN_MOTION":"15.20768490","OBJECT_NAME":"STARLINK-1096","REF_FRAME":"TEME","RCS_SIZE":"LARGE","CENTER_NAME":"EARTH","MEAN_MOTION_DDOT":"0.0000000000000","OBJECT_ID":"2020-001AE","REV_AT_EPOCH":"18661","PERIOD":"94.689","INCLINATION":"53.0475","LAUNCH_DATE":"2020-01-07","MEAN_MOTION_DOT":"0.00006455","BSTAR":"0.00030372000000","MEAN_ELEMENT_THEORY":"SGP4","TLE_LINE1":"1 44942U 20001AE  23144.57303423  .00006455  00000-0  30372-3 0  9995","EPOCH":"2023-05-24T13:45:10.157472","COUNTRY_CODE":"US","SITE":"AFETR"},{"TLE_LINE2":"2 44943  53.0520 225.9051 0000791  85.7043 274.4036 15.06379691186377","GP_ID":"232446304","ECCENTRICITY":"0.00007910","ELEMENT_SET_NO":"999","PERIAPSIS":"546.728","CLASSIFICATION_TYPE":"U","APOAPSIS":"547.824","SEMIMAJOR_AXIS":"6925.411","DECAY_DATE":null,"TIME_SYSTEM":"UTC","MEAN_ANOMALY":"274.4036","OBJECT_TYPE":"PAYLOAD","EPHEMERIS_TYPE":"0","RA_OF_ASC_NODE":"225.9051","ARG_OF_PERICENTER":"85.7043","NORAD_CAT_ID":"44943","FILE":"3916549","OBJECT_NAME":"STARLINK-1100","REF_FRAME":"TEME","MEAN_MOTION":"15.06379691","RCS_SIZE":"LARGE","OBJECT_ID":"2020-001AF","MEAN_MOTION_DDOT":"0.0000000000000","CENTER_NAME":"EARTH","REV_AT_EPOCH":"18637","LAUNCH_DATE":"2020-01-07","INCLINATION":"53.0520","MEAN_MOTION_DOT":"0.00006220","PERIOD":"95.593","MEAN_ELEMENT_THEORY":"SGP4","BSTAR":"0.00043633000000","EPOCH":"2023-05-24T14:46:39.507456","TLE_LINE1":"1 44943U 20001AF  23144.61573504  .00006220  00000-0  43633-3 0  9994","COUNTRY_CODE":"US","SITE":"AFETR"},{"OBJECT_NAME":"STARLINK-1108","REF_FRAME":"TEME","MEAN_MOTION":"15.06394824","ARG_OF_PERICENTER":"86.8769","NORAD_CAT_ID":"44944","FILE":"3916549","OBJECT_ID":"2020-001AG","MEAN_MOTION_DDOT":"0.0000000000000","CENTER_NAME":"EARTH","RCS_SIZE":"LARGE","EPOCH":"2023-05-24T12:44:34.525824","TLE_LINE1":"1 44944U 20001AG  23144.53095516 -.00001779  00000-0 -10060-3 0  9992","BSTAR":"-0.00010060000000","MEAN_ELEMENT_THEORY":"SGP4","INCLINATION":"53.0531","LAUNCH_DATE":"2020-01-07","MEAN_MOTION_DOT":"-0.00001779","PERIOD":"95.592","REV_AT_EPOCH":"18636","SITE":"AFETR","COUNTRY_CODE":"US","PERIAPSIS":"546.618","CLASSIFICATION_TYPE":"U","ELEMENT_SET_NO":"999","GP_ID":"232444796","TLE_LINE2":"2 44944  53.0531 226.2849 0000883  86.8769 273.2321 15.06394824186366","ECCENTRICITY":"0.00008830","APOAPSIS":"547.841","SEMIMAJOR_AXIS":"6925.364","MEAN_ANOMALY":"273.2321","OBJECT_TYPE":"PAYLOAD","DECAY_DATE":null,"TIME_SYSTEM":"UTC","RA_OF_ASC_NODE":"226.2849","EPHEMERIS_TYPE":"0"},{"EPHEMERIS_TYPE":"0","RA_OF_ASC_NODE":"228.8349","MEAN_ANOMALY":"270.0969","OBJECT_TYPE":"PAYLOAD","TIME_SYSTEM":"UTC","DECAY_DATE":null,"APOAPSIS":"548.136","SEMIMAJOR_AXIS":"6925.377","ELEMENT_SET_NO":"999","PERIAPSIS":"546.349","CLASSIFICATION_TYPE":"U","GP_ID":"232445548","TLE_LINE2":"2 44945  53.0539 228.8349 0001290  90.0168 270.0969 15.06390627186271","ECCENTRICITY":"0.00012900","SITE":"AFETR","COUNTRY_CODE":"US","MEAN_ELEMENT_THEORY":"SGP4","BSTAR":"0.00075596000000","EPOCH":"2023-05-23T23:07:10.449696","TLE_LINE1":"1 44945U 20001AH  23143.96331539  .00010994  00000-0  75596-3 0  9999","REV_AT_EPOCH":"18627","LAUNCH_DATE":"2020-01-07","INCLINATION":"53.0539","MEAN_MOTION_DOT":"0.00010994","PERIOD":"95.593","RCS_SIZE":"LARGE","MEAN_MOTION_DDOT":"0.0000000000000","OBJECT_ID":"2020-001AH","CENTER_NAME":"EARTH","ARG_OF_PERICENTER":"90.0168","NORAD_CAT_ID":"44945","FILE":"3916549","REF_FRAME":"TEME","OBJECT_NAME":"STARLINK-1109","MEAN_MOTION":"15.06390627"},{"COUNTRY_CODE":"US","SITE":"AFETR","MEAN_MOTION_DOT":"0.00012804","LAUNCH_DATE":"2020-01-07","INCLINATION":"53.0146","PERIOD":"93.618","REV_AT_EPOCH":"18702","EPOCH":"2023-05-24T07:43:35.735232","TLE_LINE1":"1 44946U 20001AJ  23144.32194138  .00012804  00000-0  34509-3 0  9994","MEAN_ELEMENT_THEORY":"SGP4","BSTAR":"0.00034509000000","OBJECT_ID":"2020-001AJ","MEAN_MOTION_DDOT":"0.0000000000000","CENTER_NAME":"EARTH","RCS_SIZE":"LARGE","OBJECT_NAME":"STARLINK-1110","REF_FRAME":"TEME","MEAN_MOTION":"15.38169193","NORAD_CAT_ID":"44946","ARG_OF_PERICENTER":"4.7558","FILE":"3916549","RA_OF_ASC_NODE":"174.6548","EPHEMERIS_TYPE":"0","DECAY_DATE":null,"TIME_SYSTEM":"UTC","OBJECT_TYPE":"PAYLOAD","MEAN_ANOMALY":"355.3523","APOAPSIS":"457.313","SEMIMAJOR_AXIS":"6829.660","GP_ID":"232445556","TLE_LINE2":"2 44946  53.0146 174.6548 0008474   4.7558 355.3523 15.38169193187025","ECCENTRICITY":"0.00084740","PERIAPSIS":"445.738","CLASSIFICATION_TYPE":"U","ELEMENT_SET_NO":"999"},{"DECAY_DATE":null,"TIME_SYSTEM":"UTC","OBJECT_TYPE":"PAYLOAD","MEAN_ANOMALY":"282.6749","EPHEMERIS_TYPE":"0","RA_OF_ASC_NODE":"203.0441","ECCENTRICITY":"0.00014560","GP_ID":"232445804","TLE_LINE2":"2 44947  53.0513 203.0441 0001456  77.4433 282.6749 15.76737144186676","ELEMENT_SET_NO":"999","CLASSIFICATION_TYPE":"U","PERIAPSIS":"338.716","SEMIMAJOR_AXIS":"6717.829","APOAPSIS":"340.673","REV_AT_EPOCH":"18667","PERIOD":"91.328","LAUNCH_DATE":"2020-01-07","INCLINATION":"53.0513","MEAN_MOTION_DOT":"-0.00000667","BSTAR":"-0.00000007359700","MEAN_ELEMENT_THEORY":"SGP4","TLE_LINE1":"1 44947U 20001AK  23144.32673792 -.00000667  00000-0 -73597-7 0  9993","EPOCH":"2023-05-24T07:50:30.156288","COUNTRY_CODE":"US","SITE":"AFETR","FILE":"3916549","ARG_OF_PERICENTER":"77.4433","NORAD_CAT_ID":"44947","MEAN_MOTION":"15.76737144","REF_FRAME":"TEME","OBJECT_NAME":"STARLINK-1116","RCS_SIZE":"LARGE","CENTER_NAME":"EARTH","OBJECT_ID":"2020-001AK","MEAN_MOTION_DDOT":"0.0000000000000"},{"NORAD_CAT_ID":"44949","ARG_OF_PERICENTER":"78.8204","FILE":"3916549","OBJECT_NAME":"STARLINK-1122","REF_FRAME":"TEME","MEAN_MOTION":"15.06378659","RCS_SIZE":"LARGE","MEAN_MOTION_DDOT":"0.0000000000000","OBJECT_ID":"2020-001AM","CENTER_NAME":"EARTH","BSTAR":"0.00039271000000","MEAN_ELEMENT_THEORY":"SGP4","EPOCH":"2023-05-24T14:36:02.598624","TLE_LINE1":"1 44949U 20001AM  23144.60836341  .00005570  00000-0  39271-3 0  9990","REV_AT_EPOCH":"18637","MEAN_MOTION_DOT":"0.00005570","LAUNCH_DATE":"2020-01-07","INCLINATION":"53.0523","PERIOD":"95.593","SITE":"AFETR","COUNTRY_CODE":"US","ELEMENT_SET_NO":"999","PERIAPSIS":"546.836","CLASSIFICATION_TYPE":"U","TLE_LINE2":"2 44949  53.0523 225.9397 0000639  78.8204 281.2857 15.06378659186372","GP_ID":"232445297","ECCENTRICITY":"0.00006390","APOAPSIS":"547.721","SEMIMAJOR_AXIS":"6925.414","MEAN_ANOMALY":"281.2857","OBJECT_TYPE":"PAYLOAD","TIME_SYSTEM":"UTC","DECAY_DATE":null,"EPHEMERIS_TYPE":"0","RA_OF_ASC_NODE":"225.9397"}];
